#Pass ID: 20250117_051622_NOAA 19
#Satellite: NOAA 19
#Configuration: NOAA 19
#Start time: 2025-01-17 05:16:27.581718

#LorettStation: 1.0.0 05.05.2024
#Station: Planum_Noyabrsk
#Location: 75.446886 lon 63.207202 lat
#TLE: 1 33591U 09005A   25016.13687281  .00000278  00000+0  17226-3 0  9992
#TLE: 2 33591  99.0193  79.9081 0014432  54.5182 305.7334 14.13260212821702

#Time	Az	El	Level	SNR
#Closed at: 2025-01-17 05:16:22.586129